NORAD_CAT_ID,OBJECT_NAME,OBJECT_TYPE,EPOCH,MEAN_MOTION,ECCENTRICITY,INCLINATION,RA_OF_ASC_NODE,ARG_OF_PERICENTER,MEAN_ANOMALY,BSTAR,MEAN_MOTION_DOT,MEAN_MOTION_DDOT,TLE_LINE0,TLE_LINE1,TLE_LINE2,SEMIMAJOR_AXIS,PERIOD,APOGEE,PERIGEE,DECAYED
54778.0,STARLINK-5450,PAYLOAD,2024-07-29 20:12:58,15.08837976,0.0001664,53.2191,148.1348,105.0736,255.0441,0.0001616,2.285e-05,0.0,0 STARLINK-5450,1 54778U 22175W   24211.84233824  .00002285  00000-0  16160-3 0  9996,2 54778  53.2191 148.1348 0001664 105.0736 255.0441 15.08837976 89228,6917.887,95.438,540.903,538.6,0.0
54778.0,STARLINK-5450,PAYLOAD,2024-07-30 02:34:30,15.08835735,0.0001351,53.2182,146.9479,92.8482,267.2664,0.00017741,2.536e-05,0.0,0 STARLINK-5450,1 54778U 22175W   24212.10730083  .00002536  00000-0  17741-3 0  9990,2 54778  53.2182 146.9479 0001351  92.8482 267.2664 15.08835735 91421,6917.893,95.438,540.693,538.824,0.0
54778.0,STARLINK-5450,PAYLOAD,2024-07-30 20:03:45,15.08835016,0.0001249,53.2171,143.6782,87.3627,272.7508,0.00019592,2.831e-05,0.0,0 STARLINK-5450,1 54778U 22175W   24212.83594293  .00002831  00000-0  19592-3 0  9995,2 54778  53.2171 143.6782 0001249  87.3627 272.7508 15.08835016 89377,6917.896,95.438,540.625,538.897,0.0
54778.0,STARLINK-5450,PAYLOAD,2024-07-30 23:14:31,15.08838086,0.0001302,53.2159,143.0795,91.8404,268.2737,0.00015964,2.254e-05,0.0,0 STARLINK-5450,1 54778U 22175W   24212.96842251  .00002254  00000-0  15964-3 0  9997,2 54778  53.2159 143.0795 0001302  91.8404 268.2737 15.08838086 91551,6917.886,95.438,540.652,538.851,0.0
54778.0,STARLINK-5450,PAYLOAD,2024-07-31 02:25:17,15.08856456,0.0001406,53.216,142.4864,100.5841,259.531,0.00031094,4.666e-05,0.0,0 STARLINK-5450,1 54778U 22175W   24213.10089282  .00004666  00000-0  31094-3 0  9992,2 54778  53.2160 142.4864 0001406 100.5841 259.5310 15.08856456 89414,6917.83,95.437,540.668,538.722,0.0
54778.0,STARLINK-5450,PAYLOAD,2024-07-31 11:57:33,15.08897969,0.0001277,53.2162,140.7016,102.9188,257.1947,0.00079719,0.00012442,0.0,0 STARLINK-5450,1 54778U 22175W   24213.49830088  .00012442  00000-0  79719-3 0  9999,2 54778  53.2162 140.7016 0001277 102.9188 257.1947 15.08897969 89472,6917.703,95.434,540.452,538.685,0.0
54778.0,STARLINK-5450,PAYLOAD,2024-08-01 02:16:01,15.08874466,0.0001346,53.2154,138.0168,56.0703,304.0417,0.00027849,4.151e-05,0.0,0 STARLINK-5450,1 54778U 22175W   24214.09445922  .00004151  00000-0  27849-3 0  9990,2 54778  53.2154 138.0168 0001346  56.0703 304.0417 15.08874466 89561,6917.775,95.435,540.571,538.709,0.0
54778.0,STARLINK-5450,PAYLOAD,2024-08-01 11:48:21,15.08836123,0.0001088,53.2159,136.2392,77.383,282.7284,-0.00028956,-4.893e-05,0.0,0 STARLINK-5450,1 54778U 22175W   24214.49191529 -.00004893  00000-0 -28956-3 0  9990,2 54778  53.2159 136.2392 0001088  77.3830 282.7284 15.08836123 91784,6917.892,95.438,540.51,539.005,0.0
54778.0,STARLINK-5450,PAYLOAD,2024-08-01 22:56:05,15.08810769,0.0003151,53.2164,134.1576,87.0341,273.1012,-0.00052184,-8.578e-05,0.0,0 STARLINK-5450,1 54778U 22175W   24214.95561896 -.00008578  00000-0 -52184-3 0  9993,2 54778  53.2164 134.1576 0003151  87.0341 273.1012 15.08810769 91858,6917.97,95.439,542.015,537.655,0.0
54778.0,STARLINK-5450,PAYLOAD,2024-08-02 02:06:52,15.08802422,0.0001705,53.2169,133.5646,94.8861,265.2326,-0.00062319,-0.00010182,0.0,0 STARLINK-5450,1 54778U 22175W   24215.08810229 -.00010182  00000-0 -62319-3 0  9990,2 54778  53.2169 133.5646 0001705  94.8861 265.2326 15.08802422 89719,6917.995,95.44,541.04,538.681,0.0
54778.0,STARLINK-5450,PAYLOAD,2024-08-02 11:39:10,15.08820136,0.0001158,53.2157,131.7787,98.6642,261.4481,-0.0005182,-8.521e-05,0.0,0 STARLINK-5450,1 54778U 22175W   24215.48553695 -.00008521  00000-0 -51820-3 0  9994,2 54778  53.2157 131.7787 0001158  98.6642 261.4481 15.08820136 89771,6917.941,95.439,540.607,539.005,0.0
54778.0,STARLINK-5450,PAYLOAD,2024-08-02 22:46:52,15.08829897,0.0001338,53.2154,129.6998,89.9358,270.1788,-3.3743e-05,-8.25e-06,0.0,0 STARLINK-5450,1 54778U 22175W   24215.94921873 -.00000825  00000-0 -33743-4 0  9996,2 54778  53.2154 129.6998 0001338  89.9358 270.1788 15.08829897 92005,6917.911,95.438,540.702,538.851,0.0
54778.0,STARLINK-5450,PAYLOAD,2024-08-03 03:33:01,15.08828943,0.0001183,53.2161,128.8043,96.0525,264.0602,0.00044436,6.789e-05,0.0,0 STARLINK-5450,1 54778U 22175W   24216.14793959  .00006789  00000-0  44436-3 0  9994,2 54778  53.2161 128.8043 0001183  96.0525 264.0602 15.08828943 89877,6917.914,95.438,540.598,538.961,0.0
54778.0,STARLINK-5450,PAYLOAD,2024-08-03 11:29:57,15.08841332,0.0001185,53.2164,127.3175,82.908,277.2047,0.00058582,9.048e-05,0.0,0 STARLINK-5450,1 54778U 22175W   24216.47913752  .00009048  00000-0  58582-3 0  9993,2 54778  53.2164 127.3175 0001185  82.9080 277.2047 15.08841332 92085,6917.876,95.437,540.561,538.922,0.0
54778.0,STARLINK-5450,PAYLOAD,2024-08-03 22:37:40,15.08822153,0.0001574,53.216,125.2378,86.1311,273.9861,0.00047867,7.335e-05,0.0,0 STARLINK-5450,1 54778U 22175W   24216.94283543  .00007335  00000-0  47867-3 0  9994,2 54778  53.2160 125.2378 0001574  86.1311 273.9861 15.08822153 92153,6917.935,95.439,540.889,538.711,0.0
54778.0,STARLINK-5450,PAYLOAD,2024-08-04 03:23:50,15.08833068,0.0001811,53.2159,124.3458,94.4037,265.7162,0.0004295,6.553e-05,0.0,0 STARLINK-5450,1 54778U 22175W   24217.14155246  .00006553  00000-0  42950-3 0  9994,2 54778  53.2159 124.3458 0001811  94.4037 265.7162 15.08833068 90025,6917.902,95.438,541.019,538.514,0.0
54778.0,STARLINK-5450,PAYLOAD,2024-08-04 11:20:45,15.08849597,0.0001923,53.2166,122.8618,80.9749,279.146,0.0005842,9.024e-05,0.0,0 STARLINK-5450,1 54778U 22175W   24217.47274633  .00009024  00000-0  58420-3 0  9997,2 54778  53.2166 122.8618 0001923  80.9749 279.1460 15.08849597 90077,6917.851,95.437,541.046,538.386,0.0
54778.0,STARLINK-5450,PAYLOAD,2024-08-04 22:28:26,15.08859063,0.0001775,53.2161,120.7792,100.0866,260.0326,0.00038497,5.847e-05,0.0,0 STARLINK-5450,1 54778U 22175W   24217.93641912  .00005847  00000-0  38497-3 0  9997,2 54778  53.2161 120.7792 0001775 100.0866 260.0326 15.08859063 92308,6917.822,95.436,540.915,538.459,0.0
54778.0,STARLINK-5450,PAYLOAD,2024-08-05 00:03:48,15.08900805,0.0001513,53.2154,120.4817,96.029,264.0875,0.0012055,0.00018982,0.0,0 STARLINK-5450,1 54778U 22175W   24218.00264289  .00018982  00000-0  12055-2 0  9999,2 54778  53.2154 120.4817 0001513  96.0290 264.0875 15.08900805 90155,6917.695,95.434,540.606,538.513,0.0
54778.0,STARLINK-5450,PAYLOAD,2024-08-05 11:11:30,15.08868111,0.0002068,53.2165,118.3947,102.2379,257.8844,0.00035594,5.386e-05,0.0,0 STARLINK-5450,1 54778U 22175W   24218.46632587  .00005386  00000-0  35594-3 0  9997,2 54778  53.2165 118.3947 0002068 102.2379 257.8844 15.08868111 90228,6917.794,95.436,541.09,538.229,0.0
54778.0,STARLINK-5450,PAYLOAD,2024-08-05 20:43:50,15.08821194,0.0001574,53.2176,116.6171,76.1034,284.0133,-0.00049815,-8.203e-05,0.0,0 STARLINK-5450,1 54778U 22175W   24218.86378187 -.00008203  00000-0 -49815-3 0  9998,2 54778  53.2176 116.6171 0001574  76.1034 284.0133 15.08821194 90287,6917.938,95.439,540.892,538.714,0.0
54778.0,STARLINK-5450,PAYLOAD,2024-08-05 22:19:13,15.08819965,0.0001489,53.2167,116.3201,73.1754,286.9401,-0.00068625,-0.00011187,0.0,0 STARLINK-5450,1 54778U 22175W   24218.93001954 -.00011187  00000-0 -68625-3 0  9996,2 54778  53.2167 116.3201 0001489  73.1754 286.9401 15.08819965 92452,6917.942,95.439,540.837,538.777,0.0
54778.0,STARLINK-5450,PAYLOAD,2024-08-06 03:05:23,15.08814463,0.0001205,53.2157,115.426,83.6903,276.4226,-0.00068821,-0.00011216,0.0,0 STARLINK-5450,1 54778U 22175W   24219.12874292 -.00011216  00000-0 -68821-3 0  9992,2 54778  53.2157 115.4260 0001205  83.6903 276.4226 15.08814463 92484,6917.958,95.439,540.657,538.99,0.0
54778.0,STARLINK-5450,PAYLOAD,2024-08-06 20:34:38,15.08825862,0.0001349,53.217,112.1589,78.9622,281.1522,1.0561e-05,-1.2e-06,0.0,0 STARLINK-5450,1 54778U 22175W   24219.85738987 -.00000120  00000-0  10561-4 0  9992,2 54778  53.2170 112.1589 0001349  78.9622 281.1522 15.08825862 90431,6917.924,95.438,540.722,538.855,0.0
54778.0,STARLINK-5450,PAYLOAD,2024-08-06 22:10:01,15.08830773,0.0001602,53.2164,111.8558,89.6773,270.4403,0.00014126,1.96e-05,0.0,0 STARLINK-5450,1 54778U 22175W   24219.92362964  .00001960  00000-0  14126-3 0  9990,2 54778  53.2164 111.8558 0001602  89.6773 270.4403 15.08830773 92601,6917.909,95.438,540.882,538.665,0.0
54778.0,STARLINK-5450,PAYLOAD,2024-08-06 23:45:24,15.08837747,0.0001748,53.217,111.5567,106.3906,253.7278,0.00020169,2.923e-05,0.0,0 STARLINK-5450,1 54778U 22175W   24219.98986680  .00002923  00000-0  20169-3 0  9997,2 54778  53.2170 111.5567 0001748 106.3906 253.7278 15.08837747 90454,6917.887,95.438,540.962,538.543,0.0
54778.0,STARLINK-5450,PAYLOAD,2024-08-07 20:25:25,15.08848427,0.0001441,53.2162,107.6942,103.8653,256.25,0.00041929,6.393e-05,0.0,0 STARLINK-5450,1 54778U 22175W   24220.85098868  .00006393  00000-0  41929-3 0  9999,2 54778  53.2162 107.6942 0001441 103.8653 256.2500 15.08848427 92746,6917.855,95.437,540.716,538.723,0.0
54778.0,STARLINK-5450,PAYLOAD,2024-08-08 20:16:12,15.08843192,0.0001315,53.2164,103.2331,95.8043,264.3099,4.058e-05,3.58e-06,0.0,0 STARLINK-5450,1 54778U 22175W   24221.84458770  .00000358  00000-0  40580-4 0  9999,2 54778  53.2164 103.2331 0001315  95.8043 264.3099 15.08843192 90739,6917.871,95.437,540.645,538.826,0.0
54778.0,STARLINK-5450,PAYLOAD,2024-08-08 23:26:58,15.08843249,0.0001302,53.2164,102.6383,92.7781,267.336,2.419e-05,9.7e-07,0.0,0 STARLINK-5450,1 54778U 22175W   24221.97706847  .00000097  00000-0  24190-4 0  9993,2 54778  53.2164 102.6383 0001302  92.7781 267.3360 15.08843249 92919,6917.87,95.437,540.636,538.835,0.0
54778.0,STARLINK-5450,PAYLOAD,2024-08-09 08:59:16,15.08853927,0.0001335,53.217,100.8558,79.4367,280.6776,0.00017115,2.438e-05,0.0,0 STARLINK-5450,1 54778U 22175W   24222.37450161  .00002438  00000-0  17115-3 0  9992,2 54778  53.2170 100.8558 0001335  79.4367 280.6776 15.08853927 90818,6917.838,95.437,540.626,538.779,0.0
